HIMAWARI-8              
1 40267U 14060A   23348.74616269 -.00000256  00000+0  00000+0 0  9993
2 40267   0.0127 294.3380 0000674   6.4262 191.6500  1.00269905 33580
